EAGLET-I                
1 43790U 18099AJ  26068.68676861  .00006017  00000+0  35262-3 0  9994
2 43790  97.4369 120.9821 0010486 336.8524  23.2233 15.12108144397298
STARLINK-4769           
1 53843U 22114AB  26068.04909813  .00008313  00000+0  53967-3 0  9996
2 53843  53.2170 297.0856 0001598  98.8098 261.3075 15.08848782192877
