[{"OBJECT_NAME":"EAGLET-I","OBJECT_ID":"2018-099AJ","EPOCH":"2026-03-09T16:28:56.807904","MEAN_MOTION":15.12108145,"ECCENTRICITY":0.00104863,"INCLINATION":97.4369,"RA_OF_ASC_NODE":120.9821,"ARG_OF_PERICENTER":336.8524,"MEAN_ANOMALY":23.2233,"EPHEMERIS_TYPE":0,"CLASSIFICATION_TYPE":"U","NORAD_CAT_ID":43790,"ELEMENT_SET_NO":999,"REV_AT_EPOCH":39729,"BSTAR":0.0003526184,"MEAN_MOTION_DOT":6.017e-5,"MEAN_MOTION_DDOT":0},{"OBJECT_NAME":"STARLINK-4769","OBJECT_ID":"2022-114AB","EPOCH":"2026-03-09T01:10:42.078432","MEAN_MOTION":15.08848782,"ECCENTRICITY":0.00015989,"INCLINATION":53.217,"RA_OF_ASC_NODE":297.0856,"ARG_OF_PERICENTER":98.8098,"MEAN_ANOMALY":261.3075,"EPHEMERIS_TYPE":0,"CLASSIFICATION_TYPE":"U","NORAD_CAT_ID":53843,"ELEMENT_SET_NO":999,"REV_AT_EPOCH":19287,"BSTAR":0.00053967341,"MEAN_MOTION_DOT":8.313e-5,"MEAN_MOTION_DDOT":0}]
